OBJECT_NAME,OBJECT_ID,EPOCH,MEAN_MOTION,ECCENTRICITY,INCLINATION,RA_OF_ASC_NODE,ARG_OF_PERICENTER,MEAN_ANOMALY,EPHEMERIS_TYPE,CLASSIFICATION_TYPE,NORAD_CAT_ID,ELEMENT_SET_NO,REV_AT_EPOCH,BSTAR,MEAN_MOTION_DOT,MEAN_MOTION_DDOT
STARLINK-3979,2022-052L,2026-06-13T10:16:11.578656,15.08830311,.00012513,53.1593,209.2633,95.3275,264.7859,0,U,52608,999,22531,.36378908E-4,.291E-5,0
STARLINK-3997,2022-052M,2026-06-12T16:00:01.999584,15.08832525,.00011498,53.1580,212.6368,76.5946,166.4863,0,U,52609,999,581,.67330944E-3,.10442E-3,0
STARLINK-3998,2022-052N,2026-06-13T09:41:04.860672,15.08833680,.00011281,53.1596,214.3702,85.7062,274.4059,0,U,52610,999,22523,.22292043E-4,.67E-6,0
STARLINK-3980,2022-052P,2026-06-13T09:30:29.207232,15.08834421,.00011683,53.1589,214.4038,84.3031,275.8094,0,U,52611,999,22523,.45855496E-4,.442E-5,0
STARLINK-4002,2022-052Q,2026-06-13T10:10:53.840064,15.08827685,.00012934,53.1593,209.2791,87.6411,272.4729,0,U,52612,999,22531,-.19188064E-4,-.593E-5,0
STARLINK-3982,2022-052S,2026-06-13T14:45:04.108896,15.53785650,.00011147,53.2065,130.8214,5.6698,354.4326,0,U,52614,999,22643,.14039305E-2,.92249E-3,0
STARLINK-4011,2022-052T,2026-06-13T11:00:34.219296,15.08834640,.00012225,53.1592,214.1231,87.9032,272.2100,0,U,52615,999,22523,.71281772E-4,.847E-5,0
STARLINK-3996,2022-052V,2026-06-13T07:54:26.172576,15.08831868,.00012145,53.1585,199.7041,78.6645,281.4483,0,U,52617,999,22542,.22784642E-4,.75E-6,0
STARLINK-3983,2022-052W,2026-06-13T09:35:07.239840,15.08833543,.00011776,53.1589,199.3901,80.2359,279.8766,0,U,52618,999,22543,.45688565E-4,.439E-5,0
STARLINK-3741,2022-052X,2026-06-13T09:24:31.388544,15.08830053,.00011747,53.1590,199.4136,87.3438,272.7688,0,U,52619,999,22543,.28271262E-4,.162E-5,0
STARLINK-3975,2022-052Y,2026-06-13T10:55:16.440096,15.08844600,.00012088,53.1591,214.1389,75.9945,284.1181,0,U,52620,999,22523,.68405206E-4,.801E-5,0
STARLINK-3984,2022-052Z,2026-06-13T09:13:56.961984,15.08826902,.00014862,53.1594,199.4568,76.9334,283.1823,0,U,52621,999,22543,.13029204E-3,.1785E-4,0
STARLINK-4008,2022-052AA,2026-06-13T10:02:16.677312,15.08832087,.00012239,53.1598,214.3046,85.8401,274.2730,0,U,52622,999,22523,-.16349853E-4,-.548E-5,0
STARLINK-3986,2022-052AB,2026-06-13T09:08:37.320000,15.08832421,.00011903,53.1597,199.4718,82.1309,277.9817,0,U,52623,999,22543,-.619421E-5,-.386E-5,0
STARLINK-3988,2022-052AD,2026-06-13T09:03:19.458720,15.08832610,.00012808,53.1601,199.4882,88.2316,271.8822,0,U,52625,999,22543,-.4782441E-5,-.364E-5,0
STARLINK-3990,2022-052AE,2026-06-13T09:19:13.256832,15.08831790,.00011419,53.1590,199.4392,80.8283,279.2837,0,U,52626,999,22543,.34497337E-4,.261E-5,0
STARLINK-3992,2022-052AF,2026-06-13T10:22:48.830304,15.08833042,.00012917,53.1603,199.2398,88.6629,271.4510,0,U,52627,999,22545,-.1110517E-5,-.306E-5,0
STARLINK-4001,2022-052AG,2026-06-13T09:56:58.490304,15.08836750,.0001242,53.1598,214.3220,85.2059,274.9074,0,U,52628,999,22523,.61714318E-4,.694E-5,0
STARLINK-4022,2022-052AH,2026-06-13T08:36:49.176000,15.08835348,.00012279,53.1596,199.5316,88.6390,271.4742,0,U,52629,999,22543,.41306697E-4,.369E-5,0
STARLINK-3989,2022-052AJ,2026-06-13T08:58:01.723584,15.08829853,.00011527,53.1596,199.5063,84.2798,275.8325,0,U,52630,999,22543,-.15725323E-4,-.538E-5,0
STARLINK-3794,2022-052AK,2026-06-13T08:38:13.683840,15.08823658,.00014851,53.1619,199.5765,82.1325,277.9835,0,U,52631,999,22544,-.72443999E-4,-.144E-4,0
STARLINK-3995,2022-052AL,2026-06-13T08:52:43.389696,15.08838426,.00012065,53.1600,199.5215,80.9066,279.2062,0,U,52632,999,22544,.3177989E-4,.218E-5,0
STARLINK-3994,2022-052AM,2026-06-13T09:56:19.459104,15.08829887,.0001274,53.1589,199.3235,89.9617,270.1521,0,U,52633,999,22545,.10320972E-4,-.124E-5,0
STARLINK-3974,2022-052AN,2026-06-13T08:42:07.970400,15.08834578,.00011849,53.1599,199.5821,85.3087,274.8040,0,U,52634,999,22543,.33530269E-4,.246E-5,0
STARLINK-3978,2022-052AP,2026-06-13T07:55:45.625152,15.08834703,.00012351,53.1606,189.6987,90.5348,269.5785,0,U,52635,999,22557,.42772696E-4,.393E-5,0
STARLINK-3967,2022-052AQ,2026-06-13T08:31:31.903968,15.08832791,.00014677,53.1591,199.5889,68.3740,291.7408,0,U,52636,999,22543,.27673668E-4,.152E-5,0
STARLINK-3961,2022-052AR,2026-06-13T09:25:50.960352,15.08833802,.00012448,53.1598,189.4191,85.0371,275.0763,0,U,52637,999,22638,.17203725E-4,-.14E-6,0
STARLINK-3941,2022-052AS,2026-06-13T14:47:46.692096,15.08831508,.00012014,53.1596,198.4132,83.6846,276.4282,0,U,52638,999,22628,.24883809E-4,.108E-5,0
STARLINK-3968,2022-052AT,2026-06-13T09:09:57.213216,15.08829849,.00010915,53.1587,189.4686,70.9308,289.1801,0,U,52639,999,22638,.28784344E-4,.17E-5,0
STARLINK-3977,2022-052AU,2026-06-13T08:01:03.493344,15.08835948,.0001671,53.1603,189.7042,95.1093,265.0089,0,U,52640,999,22556,.36086785E-4,.286E-5,0
