STARLINK-3979           
1 52608U 22052L   26164.42791179  .00000291  00000+0  36379-4 0  9994
2 52608  53.1593 209.2633 0001251  95.3275 264.7859 15.08830311225318
STARLINK-3997           
1 52609U 22052M   26163.66668981  .00010442  00000+0  67331-3 0  9994
2 52609  53.1580 212.6368 0001149  76.5946 166.4863 15.08832525  5813
STARLINK-3998           
1 52610U 22052N   26164.40352848  .00000067  00000+0  22292-4 0  9991
2 52610  53.1596 214.3702 0001128  85.7062 274.4059 15.08833680225231
STARLINK-3980           
1 52611U 22052P   26164.39617138  .00000442  00000+0  45855-4 0  9993
2 52611  53.1589 214.4038 0001168  84.3031 275.8094 15.08834421225230
STARLINK-4002           
1 52612U 22052Q   26164.42423426 -.00000593  00000+0 -19188-4 0  9992
2 52612  53.1593 209.2791 0001293  87.6411 272.4729 15.08827685225312
STARLINK-3982           
1 52614U 22052S   26164.61463089  .00092249  00000+0  14039-2 0  9999
2 52614  53.2065 130.8214 0001114   5.6698 354.4326 15.53785650226430
STARLINK-4011           
1 52615U 22052T   26164.45872939  .00000847  00000+0  71282-4 0  9998
2 52615  53.1592 214.1231 0001222  87.9032 272.2100 15.08834640225233
STARLINK-3996           
1 52617U 22052V   26164.32946959  .00000075  00000+0  22785-4 0  9997
2 52617  53.1585 199.7041 0001214  78.6645 281.4483 15.08831868225428
STARLINK-3983           
1 52618U 22052W   26164.39938935  .00000439  00000+0  45689-4 0  9992
2 52618  53.1589 199.3901 0001177  80.2359 279.8766 15.08833543225431
STARLINK-3741           
1 52619U 22052X   26164.39202996  .00000162  00000+0  28271-4 0  9995
2 52619  53.1590 199.4136 0001174  87.3438 272.7688 15.08830053225436
STARLINK-3975           
1 52620U 22052Y   26164.45505139  .00000801  00000+0  68405-4 0  9992
2 52620  53.1591 214.1389 0001208  75.9945 284.1181 15.08844600225234
STARLINK-3984           
1 52621U 22052Z   26164.38468706  .00001785  00000+0  13029-3 0  9996
2 52621  53.1594 199.4568 0001486  76.9334 283.1823 15.08826902225432
STARLINK-4008           
1 52622U 22052AA  26164.41824858 -.00000548  00000+0 -16350-4 0  9994
2 52622  53.1598 214.3046 0001223  85.8401 274.2730 15.08832087225235
STARLINK-3986           
1 52623U 22052AB  26164.38098750 -.00000386  00000+0 -61942-5 0  9993
2 52623  53.1597 199.4718 0001190  82.1309 277.9817 15.08832421225434
STARLINK-3988           
1 52625U 22052AD  26164.37730855 -.00000364  00000+0 -47824-5 0  9992
2 52625  53.1601 199.4882 0001280  88.2316 271.8822 15.08832610225438
STARLINK-3990           
1 52626U 22052AE  26164.38834788  .00000261  00000+0  34497-4 0  9999
2 52626  53.1590 199.4392 0001141  80.8283 279.2837 15.08831790225435
STARLINK-3992           
1 52627U 22052AF  26164.43250961 -.00000306  00000+0 -11105-5 0  9995
2 52627  53.1603 199.2398 0001291  88.6629 271.4510 15.08833042225457
STARLINK-4001           
1 52628U 22052AG  26164.41456586  .00000694  00000+0  61714-4 0  9993
2 52628  53.1598 214.3220 0001242  85.2059 274.9074 15.08836750225238
STARLINK-4022           
1 52629U 22052AH  26164.35890250  .00000369  00000+0  41307-4 0  9992
2 52629  53.1596 199.5316 0001227  88.6390 271.4742 15.08835348225433
STARLINK-3989           
1 52630U 22052AJ  26164.37363106 -.00000538  00000+0 -15725-4 0  9996
2 52630  53.1596 199.5063 0001152  84.2798 275.8325 15.08829853225434
STARLINK-3794           
1 52631U 22052AK  26164.35988060 -.00001440  00000+0 -72444-4 0  9991
2 52631  53.1619 199.5765 0001485  82.1325 277.9835 15.08823658225449
STARLINK-3995           
1 52632U 22052AL  26164.36994664  .00000218  00000+0  31780-4 0  9998
2 52632  53.1600 199.5215 0001206  80.9066 279.2062 15.08838426225445
STARLINK-3994           
1 52633U 22052AM  26164.41411411 -.00000124  00000+0  10321-4 0  9994
2 52633  53.1589 199.3235 0001274  89.9617 270.1521 15.08829887225450
STARLINK-3974           
1 52634U 22052AN  26164.36259225  .00000246  00000+0  33530-4 0  9993
2 52634  53.1599 199.5821 0001184  85.3087 274.8040 15.08834578225434
STARLINK-3978           
1 52635U 22052AP  26164.33038918  .00000393  00000+0  42773-4 0  9997
2 52635  53.1606 189.6987 0001235  90.5348 269.5785 15.08834703225574
STARLINK-3967           
1 52636U 22052AQ  26164.35523037  .00000152  00000+0  27674-4 0  9997
2 52636  53.1591 199.5889 0001467  68.3740 291.7408 15.08832791225434
STARLINK-3961           
1 52637U 22052AR  26164.39295093 -.00000014  00000+0  17204-4 0  9996
2 52637  53.1598 189.4191 0001244  85.0371 275.0763 15.08833802226383
STARLINK-3941           
1 52638U 22052AS  26164.61651264  .00000108  00000+0  24884-4 0  9993
2 52638  53.1596 198.4132 0001201  83.6846 276.4282 15.08831508226282
STARLINK-3968           
1 52639U 22052AT  26164.38191219  .00000170  00000+0  28784-4 0  9999
2 52639  53.1587 189.4686 0001091  70.9308 289.1801 15.08829849226380
STARLINK-3977           
1 52640U 22052AU  26164.33406821  .00000286  00000+0  36087-4 0  9997
2 52640  53.1603 189.7042 0001671  95.1093 265.0089 15.08835948225561
